0 COSMOS 2251 DEB
1 33917U 93036DW  13281.76455041  .00000735  00000-0  65599-3 0  2952
2 33917 074.1028 151.8874 0357156 207.5088 150.6721 13.60795337231033
0 COSMOS 2251 DEB
1 33917U 93036DW  13283.01432174  .00000723  00000-0  64566-3 0  2965
2 33917 074.1027 149.8667 0357110 205.1814 153.1516 13.60797395231205
0 COSMOS 2251 DEB
1 33917U 93036DW  13286.02847248  .00000725  00000-0  64699-3 0  2982
2 33917 074.1024 144.9933 0357012 199.5728 159.1388 13.60800005231616
0 COSMOS 2251 DEB
1 33917U 93036DW  13287.05769384  .00000767  00000-0  68371-3 0  2998
2 33917 074.1023 143.3292 0356982 197.6637 161.1802 13.60801050231759
0 COSMOS 2251 DEB
1 33917U 93036DW  13288.60152491  .00000809  00000-0  71958-3 0  3000
2 33917 074.1021 140.8332 0356963 194.7971 164.2481 13.60803588231960
0 COSMOS 2251 DEB
1 33917U 93036DW  13289.70426012  .00000750  00000-0  66859-3 0  3015
2 33917 074.1022 139.0502 0356926 192.7511 166.4398 13.60805681232112
0 COSMOS 2251 DEB
1 33917U 93036DW  13291.02754151  .00000612  00000-0  54873-3 0  3022
2 33917 074.1022 136.9105 0356884 190.2999 169.0669 13.60806423232297
0 COSMOS 2251 DEB
1 33917U 93036DW  13292.49785285  .00000594  00000-0  53298-3 0  3036
2 33917 074.1024 134.5333 0356854 187.5701 171.9943 13.60807581232498
0 COSMOS 2251 DEB
1 33917U 93036DW  13293.67410068  .00000614  00000-0  55072-3 0  3047
2 33917 074.1026 132.6314 0356840 185.3926 174.3305 13.60808377232659
0 COSMOS 2251 DEB
1 33917U 93036DW  13294.99737881  .00000602  00000-0  54017-3 0  3054
2 33917 074.1026 130.4918 0356802 182.9477 176.9542 13.60809823232835
